#dP2021  7 26  0  0  0.00000000     288   u+U IGb14 FIT  GFZ                     
## 2168  86400.00000000   300.00000000 59421 0.0000000000000                     
+  125   C01C02C03C04C05C06C07C08C09C10C11C12C13C14C16C19C20                     
+        C21C22C23C24C25C26C27C28C29C30C32C33C34C35C36C37C38                     
+        C39C40C41C42C43C44C45C46C59C60E01E02E03E04E05E07E08                     
+        E09E11E12E13E14E15E18E19E21E24E25E26E27E30E31E33E36                     
+        G01G02G03G04G05G06G07G08G09G10G11G12G13G14G15G16G17                     
+        G18G19G20G21G22G23G24G25G26G27G28G29G30G31G32J01J02                     
+        J03J07R01R02R03R04R05R07R08R09R11R12R13R14R15R16R17                     
+        R18R19R20R21R22R24 00 00 00 00 00 00 00 00 00 00 00                     
++        10 10 10 10 10  9  9 10 10 10  8  7 10 10 10  8  9                     
++        10  8  6  6  7  7  7 10  6  8  9  8  5  7  6  6  9                     
++        10 10  7  7  8  5  7  7 10 10  5  5  8  5  6  6  5                     
++         6  5  7  6  7  7  5  5  6  5  5  6  6  6  5  6  5                     
++         6  7  7  6  6  5  5  6  5  7  5  5  5  5  6  6  6                     
++         5  5  5  7  6  7  6  6  5  7  8  5  5  5  5 10 10                     
++         9 10 10  9  7  6  7  7  7 10  6  7  6  8  7  7  6                     
++         7  9  7  7  8  5  0  0  0  0  0  0  0  0  0  0  0                     
%c M  cc GPS ccc cccc cccc cccc cccc ccccc ccccc ccccc ccccc                     
%c cc cc ccc ccc cccc cccc cccc cccc ccccc ccccc ccccc ccccc                     
%f  1.2500000  1.025000000  0.00000000000  0.000000000000000                     
%f  0.0000000  0.000000000  0.00000000000  0.000000000000000                     
%i    0    0    0    0      0      0      0      0         0                     
%i    0    0    0    0      0      0      0      0         0                     
/* PCV:IGS14_2163 OL/AL:FES2004  NONE     YN CLK:CoN ORB:CoN                     
/*     GeoForschungsZentrum Potsdam                                              
/*                                                                               
/*                                                                               
*  2021  7 26  7 10  0.00000000                                                  
PC06 -21733.677784  35797.033697  -6384.772580    672.936021                     
PC07  -7463.478547  31589.818663 -26321.928537     80.619325                     
PC08 -16810.628723  18222.548143  34118.553926   -909.983371                     
PC09 -11181.262312  35482.229827 -19954.921625    345.370718                     
PC10   3556.531434  37520.314531 -18161.777382    -14.906381                     
PC11  19607.382192  -2088.190827  19820.856595    479.760073                     
PC12   7167.866521  14444.807453  22798.516835    800.319558                     
PC13  -1805.686771  22568.217609  35663.932323    350.406691                     
PC14  17535.583644   8563.109182 -19903.440920    773.711700                     
PC16 -19775.116136  36330.435932  -8642.648399   -896.475609                     
PC19 -15827.177791   2486.412411  22873.931448    923.027048                     
PC20 -16669.966176 -16609.834770  15038.544788   -834.948105                     
PC21   7494.159057  26772.652146   2261.672802   -936.974999                     
PC22  -5815.553178  20769.928112  17690.107154   -948.704259                     
PC23  13102.655065 -12742.354571  21099.989541   -965.910831                     
PC24  23901.657482  11395.286626  -8839.756561   -957.994341                     
PC25  26206.407711  -2103.338595   9383.606781   -880.116777                     
PC26   8971.129019  16577.325867 -20591.623150    873.471561                     
PC27   1103.634701 -20588.233794 -18822.830412    570.492875                     
PC28  16457.977820 -22203.100192  -3902.139163    -46.140522                     
PC29 -21664.021945  11570.576885 -13259.085310    424.622056                     
PC30 -14711.358374  -6913.197766 -22694.123910    475.331955                     
PC32  -7709.767857 -26731.784875  -2251.693843   -926.308258                     
PC33  15842.330337  -2527.019023 -22828.196575   -947.459797                     
PC34  15223.460931   6238.886832  22524.522180   -619.571100                     
PC35 -15920.331064  22667.489462   3506.509432   -169.630741                     
PC36 -26374.388650   1200.552353  -9011.565778   -736.292894                     
PC37  -7498.940582 -16828.745900  20979.462821   -863.009317                     
PC38 -15267.770067  21081.826636  33138.311299    164.251340                     
PC39 -16889.139705  37639.093978  -9076.362598     32.631045                     
PC40   -586.945408  35826.500720 -22071.601705    184.162912                     
PC41   5958.540974 -20586.822017 -17824.513879   -966.699827                     
PC42  16496.088984  17283.431142 -14362.222602   -923.754836                     
PC43  21734.169929 -10954.052645  13625.245330   -838.545583                     
PC44   -560.215798  20803.193986  18592.496313    308.528011                     
PC45 -12887.767043  12716.707116 -21219.041107    503.513259                     
PC46 -24491.066433 -10751.725992   7915.942321    161.680675                     
PC59 -32303.111037  27079.205602   -359.553943     -0.657447                     
PC60   7260.714530  41506.876843    796.784120     -0.489871                     
*  2021  7 26  7 15  0.00000000                                                  
PC06 -21471.781274  36088.101452  -5653.414756    672.950910                     
PC07  -7438.443577  31248.341592 -26737.479902     80.607051                     
PC08 -17249.066344  18346.678737  33825.846008   -909.985012                     
PC09 -11076.924618  35860.376652 -19343.759247    345.361990                     
PC10   3695.883524  37213.455703 -18755.505001    -14.905226                     
PC11  19153.053889  -1577.695965  20306.405289    479.766899                     
PC12   6652.772374  15024.259077  22578.100243    800.316158                     
PC13  -2230.217869  22541.392815  35653.225948    350.410863                     
PC14  17743.707412   9206.436199 -19425.013339    773.701993                     
PC16 -19521.149980  36636.600428  -7910.721979   -896.469045                     
PC19 -16085.697123   1750.121159  22761.983663    923.031282                     
PC20 -16814.877002 -17091.213742  14320.970190   -834.945147                     
PC21   7430.846201  26696.449135   3188.428198   -936.975538                     
PC22  -6041.630929  20195.913581  18270.342635   -948.704444                     
PC23  13802.836172 -12586.237498  20743.993788   -965.909791                     
PC24  23581.194996  11379.084266  -9680.572913   -958.000135                     
PC25  26502.035766  -2008.295103   8536.507685   -880.115038                     
PC26   8265.537267  16477.443936 -20962.912577    873.469950                     
PC27   1539.278631 -21050.044272 -18272.427747    570.494716                     
PC28  16561.048895 -22269.258517  -2979.991233    -46.139203                     
PC29 -21389.942602  11191.647348 -14008.801750    424.623596                     
PC30 -14220.604587  -7518.468565 -22813.737929    475.332337                     
PC32  -7646.004430 -26655.468318  -3177.410517   -926.308904                     
PC33  16104.287275  -1791.506305 -22713.668491   -947.461279                     
PC34  14734.756696   6841.210655  22674.518391   -619.568500                     
PC35 -16014.452514  22725.551106   2584.340170   -169.625421                     
PC36 -26656.237785   1100.164755  -8157.784923   -736.294012                     
PC37  -6784.409907 -16709.613205  21315.999355   -863.008787                     
PC38 -15661.468959  21185.568848  32885.282447    164.252161                     
PC39 -16617.581168  37928.763757  -8345.764943     32.631125                     
PC40   -383.241597  35447.714713 -22680.537295    184.164046                     
PC41   6189.489573 -20007.437204 -18394.946144   -966.702065                     
PC42  16631.049578  17746.783007 -13624.187712   -923.756226                     
PC43  21452.621131 -10563.454650  14359.929839   -838.550806                     
PC44   -978.196161  21272.869673  18036.600093    308.533794                     
PC45 -13593.940128  12562.448171 -20867.138773    503.516329                     
PC46 -24202.134353 -10739.238123   8776.997987    161.675449                     
PC59 -32303.401934  27078.888449   -345.837085     -0.657455                     
PC60   7260.442793  41507.634392    762.472096     -0.489939                     
EOF                                      
